[{"OBJECT_NAME":"JINJUSAT-1B","OBJECT_ID":"2025-052A","EPOCH":"2026-03-09T15:55:38.242848","MEAN_MOTION":15.30194857,"ECCENTRICITY":0.00055504,"INCLINATION":97.4113,"RA_OF_ASC_NODE":325.4613,"ARG_OF_PERICENTER":82.193,"MEAN_ANOMALY":277.9941,"EPHEMERIS_TYPE":0,"CLASSIFICATION_TYPE":"U","NORAD_CAT_ID":63210,"ELEMENT_SET_NO":999,"REV_AT_EPOCH":5486,"BSTAR":0.00068430401,"MEAN_MOTION_DOT":0.00019955,"MEAN_MOTION_DDOT":0},{"OBJECT_NAME":"STARLINK-33716","OBJECT_ID":"2025-070AC","EPOCH":"2026-03-09T22:04:04.129536","MEAN_MOTION":15.27596358,"ECCENTRICITY":0.00028956,"INCLINATION":43.0054,"RA_OF_ASC_NODE":258.3221,"ARG_OF_PERICENTER":275.4213,"MEAN_ANOMALY":84.6308,"EPHEMERIS_TYPE":0,"CLASSIFICATION_TYPE":"U","NORAD_CAT_ID":63486,"ELEMENT_SET_NO":999,"REV_AT_EPOCH":5301,"BSTAR":0.0013567653,"MEAN_MOTION_DOT":0.00037283,"MEAN_MOTION_DDOT":0}]
